[{"OBJECT_NAME":"JILIN-1 GAOFEN 03D47","OBJECT_ID":"2022-167L","EPOCH":"2026-03-09T22:56:46.924224","MEAN_MOTION":15.31686941,"ECCENTRICITY":0.00089304,"INCLINATION":97.6835,"RA_OF_ASC_NODE":234.6581,"ARG_OF_PERICENTER":110.4031,"MEAN_ANOMALY":249.8169,"EPHEMERIS_TYPE":0,"CLASSIFICATION_TYPE":"U","NORAD_CAT_ID":54692,"ELEMENT_SET_NO":999,"REV_AT_EPOCH":18014,"BSTAR":0.00047294748,"MEAN_MOTION_DOT":0.00014417,"MEAN_MOTION_DDOT":0},{"OBJECT_NAME":"STARLINK-35252","OBJECT_ID":"2025-221AD","EPOCH":"2026-03-09T11:15:25.388640","MEAN_MOTION":15.3020143,"ECCENTRICITY":0.00013376,"INCLINATION":53.159,"RA_OF_ASC_NODE":89.7889,"ARG_OF_PERICENTER":73.5171,"MEAN_ANOMALY":286.5976,"EPHEMERIS_TYPE":0,"CLASSIFICATION_TYPE":"U","NORAD_CAT_ID":65850,"ELEMENT_SET_NO":999,"REV_AT_EPOCH":2604,"BSTAR":0.00095605845,"MEAN_MOTION_DOT":0.00028065,"MEAN_MOTION_DDOT":0}]
